OBJECT_NAME,OBJECT_ID,EPOCH,MEAN_MOTION,ECCENTRICITY,INCLINATION,RA_OF_ASC_NODE,ARG_OF_PERICENTER,MEAN_ANOMALY,EPHEMERIS_TYPE,CLASSIFICATION_TYPE,NORAD_CAT_ID,ELEMENT_SET_NO,REV_AT_EPOCH,BSTAR,MEAN_MOTION_DOT,MEAN_MOTION_DDOT
SITRO-AIS 9 (SHCHUKIN),2023-091AM,2026-07-07T04:16:39.351072,15.38902680,.0005907,97.5065,258.9218,13.7194,346.4211,0,U,57201,999,16782,.37198E-3,.1425E-3,0
UTMN 2 (RS27S),2023-091AP,2026-07-07T04:11:06.019872,15.32568801,.0007595,97.5074,255.6778,19.5674,340.5857,0,U,57203,999,16760,.29923E-3,.934E-4,0
SITRO-AIS 12 (SMIRENNIY),2023-091AQ,2026-07-07T03:57:40.313088,15.39195144,.0005429,97.5079,259.3881,7.4887,352.6438,0,U,57204,999,16784,.36976E-3,.14299E-3,0
SITRO-AIS 11 (SHEFFER),2023-091AU,2026-07-07T04:08:56.074272,15.39635879,.0005348,97.5077,259.6554,7.1700,352.9621,0,U,57208,999,16786,.38498E-3,.1511E-3,0
H2SAT (HEINRICH HERTZ),2023-093A,2026-07-06T22:21:02.101248,1.00270676,.0001097,0.0143,103.1163,34.0278,123.7384,0,U,57213,999,1111,0,.17E-6,0
KUZGTU 1 (RS47S),2023-091AV,2026-07-07T02:40:13.484352,15.30345853,.0010951,97.5050,252.7991,34.3730,325.8217,0,U,57217,999,16742,.31165E-3,.9087E-4,0
QIANKUN-1,2023-103B,2026-07-06T18:39:58.876128,16.07654573,.0036173,96.1484,231.2442,142.6775,217.7034,0,U,57422,999,17044,.22982E-3,.201077E-2,.20009E-4
FENGYUN 3F,2023-111A,2026-07-07T04:44:44.099232,14.19942541,.0001412,98.6828,257.8329,80.3691,279.7645,0,U,57490,999,15170,.30441E-4,.21E-6,0
HJ-2F,2023-116A,2026-07-07T04:00:45.610848,15.22618180,.000745,97.3850,193.0409,345.5320,14.5702,0,U,57519,999,16179,.24034E-3,.5522E-4,0
XRISM,2023-137A,2026-07-06T12:37:36.395616,15.12631514,.0007794,31.0012,234.3179,159.2962,200.7994,0,U,57800,999,15579,.18768E-3,.3461E-4,0
METEOR-M2 4,2024-039A,2026-07-07T03:51:12.032352,14.22431588,.0008159,98.7020,147.2085,108.7385,251.4679,0,U,59051,999,12210,.26288E-4,.15E-6,0
GRBBETA,2024-128C,2026-07-06T08:00:04.521888,15.06767391,.00381911,61.9891,149.0849,138.6902,221.7091,0,U,60237,999,10915,.27634718E-3,.3982E-4,0
TRANSPORTER-11 OBJECT A,2024-149A,2026-07-06T05:06:19.992096,15.33239338,.00044079,97.3721,267.0866,139.2620,220.8952,0,U,60468,999,10497,.26910686E-3,.8567E-4,0
WARATAH SEED-1,2024-149B,2026-07-06T17:13:38.601696,15.36467018,.0002876,97.3680,268.3167,137.0194,223.1275,0,U,60469,999,10511,.30288E-3,.10699E-3,0
PHISAT 2,2024-149C,2026-07-07T04:12:28.035936,15.31345037,.0002754,97.3746,267.2833,137.7603,222.3851,0,U,60470,999,10505,.18083E-3,.5397E-4,0
LEMUR-2-TOMATOKECHUP,2024-149D,2026-07-06T17:07:24.161376,15.36460405,.0002908,97.3789,269.8148,137.9028,222.2440,0,U,60471,999,10516,.255E-3,.8991E-4,0
CONNECTA IOT-1,2024-149E,2026-07-07T01:28:08.449824,15.23700125,.0002099,97.3745,264.0177,159.6473,200.4848,0,U,60472,999,10482,.13548E-3,.3182E-4,0
LOPEN,2024-149F,2026-07-06T04:03:47.074176,15.40275022,.00022518,97.3769,270.6922,150.0988,210.0388,0,U,60473,999,10518,.40606187E-3,.16279E-3,0
ROCK,2024-149G,2026-07-06T05:18:08.296704,15.40266018,.00025745,97.3764,270.7588,149.0840,211.0558,0,U,60474,999,10519,.3975941E-3,.15933E-3,0
CONNECTA IOT-3,2024-149H,2026-07-07T00:24:07.305408,15.23712963,.0003196,97.3723,263.7215,164.5681,195.5654,0,U,60475,999,10482,.14625E-3,.3442E-4,0
QUBE,2024-149J,2026-07-06T16:47:31.447392,15.48202046,.0003101,97.3769,274.5214,148.1376,212.0063,0,U,60476,999,10548,.42036E-3,.22064E-3,0
WREN-1,2024-149L,2026-07-06T17:35:24.041760,15.42378651,.0004817,97.3757,272.0607,176.6834,183.4446,0,U,60478,999,10533,.37844E-3,.16268E-3,0
TOMORROW-S1,2024-149M,2026-07-06T17:17:21.606144,15.33010122,.0003475,97.3741,268.1341,150.7548,209.3890,0,U,60479,999,10508,.18694E-3,.5883E-4,0
FLOCK 4BE-18,2024-149N,2026-07-06T16:14:03.628032,15.42564534,.0004418,97.3719,271.6184,172.5556,187.5758,0,U,60480,999,10531,.34412E-3,.14874E-3,0
FLOCK 4BE-7,2024-149P,2026-07-07T00:38:55.042080,15.41201300,.0003703,97.3750,271.2759,170.7325,189.3991,0,U,60481,999,10530,.44899E-3,.18577E-3,0
TOMORROW-S2,2024-149T,2026-07-06T18:00:37.166688,15.33055957,.0003069,97.3810,268.6719,171.0564,189.0733,0,U,60485,999,10508,.20945E-3,.661E-4,0
FLOCK 4BE-36,2024-149U,2026-07-07T00:37:59.986272,15.43353640,.0004141,97.3735,272.7003,175.2705,184.8583,0,U,60486,999,10541,.29345E-3,.13008E-3,0
FLOCK 4BE-25,2024-149V,2026-07-07T04:15:51.501024,15.39388814,.0003132,97.3790,271.4701,160.0470,200.0899,0,U,60487,999,10531,.27493E-3,.10672E-3,0
